CCSDS_OMM_VERS = 2.0
CREATION_DATE  = 
ORIGINATOR     = 

OBJECT_NAME    = FLOCK 4H-10
OBJECT_ID      = 2025-276AZ
CENTER_NAME    = EARTH
REF_FRAME      = TEME
TIME_SYSTEM    = UTC
MEAN_ELEMENT_THEORY = SGP/SGP4

EPOCH          = 2025-12-28T04:09:05.550624
MEAN_MOTION    = 15.17351663
ECCENTRICITY   = .00036701
INCLINATION    = 97.4392
RA_OF_ASC_NODE = 73.6540
ARG_OF_PERICENTER = 226.8071
MEAN_ANOMALY   = 133.2856

EPHEMERIS_TYPE = 0
CLASSIFICATION_TYPE = U
NORAD_CAT_ID   = 66713
ELEMENT_SET_NO = 999
REV_AT_EPOCH   = 446
BSTAR          = .62549421E-3
MEAN_MOTION_DOT = .12431E-3
MEAN_MOTION_DDOT = 0

CCSDS_OMM_VERS = 2.0
CREATION_DATE  = 
ORIGINATOR     = 

OBJECT_NAME    = FLOCK 4H-11
OBJECT_ID      = 2025-276BA
CENTER_NAME    = EARTH
REF_FRAME      = TEME
TIME_SYSTEM    = UTC
MEAN_ELEMENT_THEORY = SGP/SGP4

EPOCH          = 2025-12-28T05:33:44.616960
MEAN_MOTION    = 15.17920987
ECCENTRICITY   = .00021808
INCLINATION    = 97.4408
RA_OF_ASC_NODE = 73.7400
ARG_OF_PERICENTER = 246.4009
MEAN_ANOMALY   = 113.6996

EPHEMERIS_TYPE = 0
CLASSIFICATION_TYPE = U
NORAD_CAT_ID   = 66714
ELEMENT_SET_NO = 999
REV_AT_EPOCH   = 447
BSTAR          = .78357465E-3
MEAN_MOTION_DOT = .15852E-3
MEAN_MOTION_DDOT = 0

CCSDS_OMM_VERS = 2.0
CREATION_DATE  = 
ORIGINATOR     = 

OBJECT_NAME    = FLOCK 4H-12
OBJECT_ID      = 2025-276BB
CENTER_NAME    = EARTH
REF_FRAME      = TEME
TIME_SYSTEM    = UTC
MEAN_ELEMENT_THEORY = SGP/SGP4

EPOCH          = 2025-12-28T05:21:12.869568
MEAN_MOTION    = 15.19788181
ECCENTRICITY   = .00030917
INCLINATION    = 97.4385
RA_OF_ASC_NODE = 73.7334
ARG_OF_PERICENTER = 231.9689
MEAN_ANOMALY   = 128.1267

EPHEMERIS_TYPE = 0
CLASSIFICATION_TYPE = U
NORAD_CAT_ID   = 66715
ELEMENT_SET_NO = 999
REV_AT_EPOCH   = 478
BSTAR          = .47881273E-1
MEAN_MOTION_DOT = .1108985E-1
MEAN_MOTION_DDOT = 0

CCSDS_OMM_VERS = 2.0
CREATION_DATE  = 
ORIGINATOR     = 

OBJECT_NAME    = FLOCK 4H-13
OBJECT_ID      = 2025-276BC
CENTER_NAME    = EARTH
REF_FRAME      = TEME
TIME_SYSTEM    = UTC
MEAN_ELEMENT_THEORY = SGP/SGP4

EPOCH          = 2025-12-28T05:18:06.585984
MEAN_MOTION    = 15.18274476
ECCENTRICITY   = .000199
INCLINATION    = 97.4422
RA_OF_ASC_NODE = 73.7537
ARG_OF_PERICENTER = 136.4050
MEAN_ANOMALY   = 223.7341

EPHEMERIS_TYPE = 0
CLASSIFICATION_TYPE = U
NORAD_CAT_ID   = 66716
ELEMENT_SET_NO = 999
REV_AT_EPOCH   = 447
BSTAR          = .52987513E-3
MEAN_MOTION_DOT = .108E-3
MEAN_MOTION_DDOT = 0

CCSDS_OMM_VERS = 2.0
CREATION_DATE  = 
ORIGINATOR     = 

OBJECT_NAME    = FLOCK 4H-14
OBJECT_ID      = 2025-276BD
CENTER_NAME    = EARTH
REF_FRAME      = TEME
TIME_SYSTEM    = UTC
MEAN_ELEMENT_THEORY = SGP/SGP4

EPOCH          = 2025-12-28T03:39:34.743744
MEAN_MOTION    = 15.18425380
ECCENTRICITY   = .00018489
INCLINATION    = 97.4410
RA_OF_ASC_NODE = 73.6873
ARG_OF_PERICENTER = 127.0973
MEAN_ANOMALY   = 233.0430

EPHEMERIS_TYPE = 0
CLASSIFICATION_TYPE = U
NORAD_CAT_ID   = 66717
ELEMENT_SET_NO = 999
REV_AT_EPOCH   = 371
BSTAR          = .46643091E-3
MEAN_MOTION_DOT = .9538E-4
MEAN_MOTION_DDOT = 0

CCSDS_OMM_VERS = 2.0
CREATION_DATE  = 
ORIGINATOR     = 

OBJECT_NAME    = FLOCK 4H-15
OBJECT_ID      = 2025-276BE
CENTER_NAME    = EARTH
REF_FRAME      = TEME
TIME_SYSTEM    = UTC
MEAN_ELEMENT_THEORY = SGP/SGP4

EPOCH          = 2025-12-28T05:47:33.721728
MEAN_MOTION    = 15.17175547
ECCENTRICITY   = .00032175
INCLINATION    = 97.4416
RA_OF_ASC_NODE = 73.7256
ARG_OF_PERICENTER = 241.3620
MEAN_ANOMALY   = 118.7290

EPHEMERIS_TYPE = 0
CLASSIFICATION_TYPE = U
NORAD_CAT_ID   = 66718
ELEMENT_SET_NO = 999
REV_AT_EPOCH   = 447
BSTAR          = .62381874E-3
MEAN_MOTION_DOT = .12334E-3
MEAN_MOTION_DDOT = 0

CCSDS_OMM_VERS = 2.0
CREATION_DATE  = 
ORIGINATOR     = 

OBJECT_NAME    = FLOCK 4H-16
OBJECT_ID      = 2025-276BF
CENTER_NAME    = EARTH
REF_FRAME      = TEME
TIME_SYSTEM    = UTC
MEAN_ELEMENT_THEORY = SGP/SGP4

EPOCH          = 2025-12-28T05:44:33.149184
MEAN_MOTION    = 15.17290616
ECCENTRICITY   = .00034702
INCLINATION    = 97.4431
RA_OF_ASC_NODE = 73.7347
ARG_OF_PERICENTER = 228.1727
MEAN_ANOMALY   = 131.9211

EPHEMERIS_TYPE = 0
CLASSIFICATION_TYPE = U
NORAD_CAT_ID   = 66719
ELEMENT_SET_NO = 999
REV_AT_EPOCH   = 447
BSTAR          = .64425178E-3
MEAN_MOTION_DOT = .12784E-3
MEAN_MOTION_DDOT = 0

CCSDS_OMM_VERS = 2.0
CREATION_DATE  = 
ORIGINATOR     = 

OBJECT_NAME    = FLOCK 4H-17
OBJECT_ID      = 2025-276BG
CENTER_NAME    = EARTH
REF_FRAME      = TEME
TIME_SYSTEM    = UTC
MEAN_ELEMENT_THEORY = SGP/SGP4

EPOCH          = 2025-12-28T06:56:35.339424
MEAN_MOTION    = 15.18153328
ECCENTRICITY   = .00021376
INCLINATION    = 97.4433
RA_OF_ASC_NODE = 73.8235
ARG_OF_PERICENTER = 191.4585
MEAN_ANOMALY   = 168.6601

EPHEMERIS_TYPE = 0
CLASSIFICATION_TYPE = U
NORAD_CAT_ID   = 66720
ELEMENT_SET_NO = 999
REV_AT_EPOCH   = 448
BSTAR          = .71711332E-3
MEAN_MOTION_DOT = .14596E-3
MEAN_MOTION_DDOT = 0

CCSDS_OMM_VERS = 2.0
CREATION_DATE  = 
ORIGINATOR     = 

OBJECT_NAME    = FLOCK 4H-18
OBJECT_ID      = 2025-276BH
CENTER_NAME    = EARTH
REF_FRAME      = TEME
TIME_SYSTEM    = UTC
MEAN_ELEMENT_THEORY = SGP/SGP4

EPOCH          = 2025-12-28T05:46:36.360768
MEAN_MOTION    = 15.17208341
ECCENTRICITY   = .00025303
INCLINATION    = 97.4375
RA_OF_ASC_NODE = 73.7090
ARG_OF_PERICENTER = 254.2836
MEAN_ANOMALY   = 105.8118

EPHEMERIS_TYPE = 0
CLASSIFICATION_TYPE = U
NORAD_CAT_ID   = 66721
ELEMENT_SET_NO = 999
REV_AT_EPOCH   = 447
BSTAR          = .59423329E-3
MEAN_MOTION_DOT = .11756E-3
MEAN_MOTION_DDOT = 0

CCSDS_OMM_VERS = 2.0
CREATION_DATE  = 
ORIGINATOR     = 

OBJECT_NAME    = FLOCK 4H-19
OBJECT_ID      = 2025-276BJ
CENTER_NAME    = EARTH
REF_FRAME      = TEME
TIME_SYSTEM    = UTC
MEAN_ELEMENT_THEORY = SGP/SGP4

EPOCH          = 2025-12-28T05:16:31.466496
MEAN_MOTION    = 15.18415170
ECCENTRICITY   = .00026637
INCLINATION    = 97.4381
RA_OF_ASC_NODE = 73.7386
ARG_OF_PERICENTER = 141.5898
MEAN_ANOMALY   = 218.5526

EPHEMERIS_TYPE = 0
CLASSIFICATION_TYPE = U
NORAD_CAT_ID   = 66722
ELEMENT_SET_NO = 999
REV_AT_EPOCH   = 376
BSTAR          = .10856045E-2
MEAN_MOTION_DOT = .22322E-3
MEAN_MOTION_DDOT = 0

CCSDS_OMM_VERS = 2.0
CREATION_DATE  = 
ORIGINATOR     = 

OBJECT_NAME    = FLOCK 4H-20
OBJECT_ID      = 2025-276BK
CENTER_NAME    = EARTH
REF_FRAME      = TEME
TIME_SYSTEM    = UTC
MEAN_ELEMENT_THEORY = SGP/SGP4

EPOCH          = 2025-12-28T05:15:27.491616
MEAN_MOTION    = 15.18403251
ECCENTRICITY   = .00032232
INCLINATION    = 97.4418
RA_OF_ASC_NODE = 73.7557
ARG_OF_PERICENTER = 155.3985
MEAN_ANOMALY   = 204.7403

EPHEMERIS_TYPE = 0
CLASSIFICATION_TYPE = U
NORAD_CAT_ID   = 66723
ELEMENT_SET_NO = 999
REV_AT_EPOCH   = 372
BSTAR          = .61009731E-3
MEAN_MOTION_DOT = .12495E-3
MEAN_MOTION_DDOT = 0

CCSDS_OMM_VERS = 2.0
CREATION_DATE  = 
ORIGINATOR     = 

OBJECT_NAME    = FLOCK 4H-21
OBJECT_ID      = 2025-276BL
CENTER_NAME    = EARTH
REF_FRAME      = TEME
TIME_SYSTEM    = UTC
MEAN_ELEMENT_THEORY = SGP/SGP4

EPOCH          = 2025-12-28T05:14:28.910688
MEAN_MOTION    = 15.18339390
ECCENTRICITY   = .00040696
INCLINATION    = 97.4384
RA_OF_ASC_NODE = 73.7401
ARG_OF_PERICENTER = 151.7050
MEAN_ANOMALY   = 208.4406

EPHEMERIS_TYPE = 0
CLASSIFICATION_TYPE = U
NORAD_CAT_ID   = 66724
ELEMENT_SET_NO = 999
REV_AT_EPOCH   = 372
BSTAR          = -.17944144E-2
MEAN_MOTION_DOT = -.36702E-3
MEAN_MOTION_DDOT = 0

