FLOCK 4H-10             
1 66713U 25276AZ  25362.17298091  .00012431  00000+0  62549-3 0  9999
2 66713  97.4392  73.6540 0003670 226.8071 133.2856 15.17351663  4466
FLOCK 4H-11             
1 66714U 25276BA  25362.23176640  .00015852  00000+0  78357-3 0  9996
2 66714  97.4408  73.7400 0002180 246.4009 113.6996 15.17920987  4474
FLOCK 4H-12             
1 66715U 25276BB  25362.22306562  .01108985  00000+0  47881-1 0  9991
2 66715  97.4385  73.7334 0003091 231.9689 128.1267 15.19788181  4786
FLOCK 4H-13             
1 66716U 25276BC  25362.22090956  .00010800  00000+0  52988-3 0  9992
2 66716  97.4422  73.7537 0001990 136.4050 223.7341 15.18274476  4478
FLOCK 4H-14             
1 66717U 25276BD  25362.15248546  .00009538  00000+0  46643-3 0  9992
2 66717  97.4410  73.6873 0001848 127.0973 233.0430 15.18425380  3711
FLOCK 4H-15             
1 66718U 25276BE  25362.24136252  .00012334  00000+0  62382-3 0  9999
2 66718  97.4416  73.7256 0003217 241.3620 118.7290 15.17175547  4478
FLOCK 4H-16             
1 66719U 25276BF  25362.23927256  .00012784  00000+0  64425-3 0  9990
2 66719  97.4431  73.7347 0003470 228.1727 131.9211 15.17290616  4474
FLOCK 4H-17             
1 66720U 25276BG  25362.28929791  .00014596  00000+0  71711-3 0  9992
2 66720  97.4433  73.8235 0002137 191.4585 168.6601 15.18153328  4488
FLOCK 4H-18             
1 66721U 25276BH  25362.24069862  .00011756  00000+0  59423-3 0  9994
2 66721  97.4375  73.7090 0002530 254.2836 105.8118 15.17208341  4476
FLOCK 4H-19             
1 66722U 25276BJ  25362.21980864  .00022322  00000+0  10856-2 0  9993
2 66722  97.4381  73.7386 0002663 141.5898 218.5526 15.18415170  3762
FLOCK 4H-20             
1 66723U 25276BK  25362.21906819  .00012495  00000+0  61010-3 0  9991
2 66723  97.4418  73.7557 0003223 155.3985 204.7403 15.18403251  3721
FLOCK 4H-21             
1 66724U 25276BL  25362.21839017 -.00036702  00000+0 -17944-2 0  9992
2 66724  97.4384  73.7401 0004069 151.7050 208.4406 15.18339390  3720
